{"type": "FeatureCollection", "features": [ {"type": "Feature", "properties": {"norad_id": 33825, "name": "COSMOS 2251 DEB", "group": "cosmos-2251-debris", "lat": -11.605361997845096, "lon": -174.34867723762142, "alt_km": 707.0189551793901, "timestamp": "2025-12-25T20:42:39.080434+00:00", "meta": {"OBJECT_NAME": "COSMOS 2251 DEB", "OBJECT_ID": "1993-036BS", "EPOCH": "2025-12-24T22:48:14.857344", "MEAN_MOTION": 14.69882071, "ECCENTRICITY": 0.00851047, "INCLINATION": 73.9851, "RA_OF_ASC_NODE": 4.0441, "ARG_OF_PERICENTER": 328.2698, "MEAN_ANOMALY": 76.3252, "EPHEMERIS_TYPE": 0, "CLASSIFICATION_TYPE": "U", "NORAD_CAT_ID": 33825, "ELEMENT_SET_NO": 999, "REV_AT_EPOCH": 89059, "BSTAR": 0.0011143871, "MEAN_MOTION_DOT": 7.02e-05, "MEAN_MOTION_DDOT": 0}, "tle": {"line1": "1 33825U 93036BS  25358.95017196  .00007020  00000+0  11144-2 0  9994", "line2": "2 33825  73.9851   4.0441 0085104 328.2698  76.3252 14.69882071890597"}}, "geometry": {"type": "Point", "coordinates": [-174.34867723762142, -11.605361997845096]}}, {"type": "Feature", "properties": {"norad_id": 33826, "name": "COSMOS 2251 DEB", "group": "cosmos-2251-debris", "lat": -48.82716025962829, "lon": 6.13517816193348, "alt_km": 752.2363537101946, "timestamp": "2025-12-25T20:42:39.080444+00:00", "meta": {"OBJECT_NAME": "COSMOS 2251 DEB", "OBJECT_ID": "1993-036BT", "EPOCH": "2025-12-25T06:25:50.407392", "MEAN_MOTION": 14.51774716, "ECCENTRICITY": 0.00825159, "INCLINATION": 74.064, "RA_OF_ASC_NODE": 26.3216, "ARG_OF_PERICENTER": 66.4647, "MEAN_ANOMALY": 14.4654, "EPHEMERIS_TYPE": 0, "CLASSIFICATION_TYPE": "U", "NORAD_CAT_ID": 33826, "ELEMENT_SET_NO": 999, "REV_AT_EPOCH": 87951, "BSTAR": 0.00047550154, "MEAN_MOTION_DOT": 1.97e-05, "MEAN_MOTION_DDOT": 0}, "tle": {"line1": "1 33826U 93036BT  25359.26794453  .00001970  00000+0  47550-3 0  9997", "line2": "2 33826  74.0640  26.3216 0082515  66.4647  14.4654 14.51774716879516"}}, "geometry": {"type": "Point", "coordinates": [6.13517816193348, -48.82716025962829]}}, {"type": "Feature", "properties": {"norad_id": 33828, "name": "COSMOS 2251 DEB", "group": "cosmos-2251-debris", "lat": -34.96910507411805, "lon": 45.2292405862658, "alt_km": 742.077805867707, "timestamp": "2025-12-25T20:42:39.080455+00:00", "meta": {"OBJECT_NAME": "COSMOS 2251 DEB", "OBJECT_ID": "1993-036BV", "EPOCH": "2025-12-25T00:17:48.836256", "MEAN_MOTION": 14.44366636, "ECCENTRICITY": 0.00295193, "INCLINATION": 74.045, "RA_OF_ASC_NODE": 215.2685, "ARG_OF_PERICENTER": 286.3206, "MEAN_ANOMALY": 189.4919, "EPHEMERIS_TYPE": 0, "CLASSIFICATION_TYPE": "U", "NORAD_CAT_ID": 33828, "ELEMENT_SET_NO": 999, "REV_AT_EPOCH": 88490, "BSTAR": 0.00037982137, "MEAN_MOTION_DOT": 1.288e-05, "MEAN_MOTION_DDOT": 0}, "tle": {"line1": "1 33828U 93036BV  25359.01237079  .00001288  00000+0  37982-3 0  9998", "line2": "2 33828  74.0450 215.2685 0029519 286.3206 189.4919 14.44366636884901"}}, "geometry": {"type": "Point", "coordinates": [45.2292405862658, -34.96910507411805]}}, {"type": "Feature", "properties": {"norad_id": 33830, "name": "COSMOS 2251 DEB", "group": "cosmos-2251-debris", "lat": -10.527131013114348, "lon": 27.68509967959985, "alt_km": 662.3205953321512, "timestamp": "2025-12-25T20:42:39.080465+00:00", "meta": {"OBJECT_NAME": "COSMOS 2251 DEB", "OBJECT_ID": "1993-036BX", "EPOCH": "2025-12-25T00:51:34.583616", "MEAN_MOTION": 14.7702343, "ECCENTRICITY": 0.00427525, "INCLINATION": 74.0307, "RA_OF_ASC_NODE": 206.2562, "ARG_OF_PERICENTER": 323.8791, "MEAN_ANOMALY": 151.0365, "EPHEMERIS_TYPE": 0, "CLASSIFICATION_TYPE": "U", "NORAD_CAT_ID": 33830, "ELEMENT_SET_NO": 999, "REV_AT_EPOCH": 89653, "BSTAR": 0.00076402096, "MEAN_MOTION_DOT": 5.439e-05, "MEAN_MOTION_DDOT": 0}, "tle": {"line1": "1 33830U 93036BX  25359.03581694  .00005439  00000+0  76402-3 0  9990", "line2": "2 33830  74.0307 206.2562 0042752 323.8791 151.0365 14.77023430896539"}}, "geometry": {"type": "Point", "coordinates": [27.68509967959985, -10.527131013114348]}}, {"type": "Feature", "properties": {"norad_id": 33832, "name": "COSMOS 2251 DEB", "group": "cosmos-2251-debris", "lat": -14.01498328580226, "lon": 9.025860396181011, "alt_km": 678.7899812577443, "timestamp": "2025-12-25T20:42:39.080475+00:00", "meta": {"OBJECT_NAME": "COSMOS 2251 DEB", "OBJECT_ID": "1993-036BZ", "EPOCH": "2025-12-24T23:08:33.802368", "MEAN_MOTION": 14.60787327, "ECCENTRICITY": 0.00240333, "INCLINATION": 74.0528, "RA_OF_ASC_NODE": 186.6476, "ARG_OF_PERICENTER": 215.359, "MEAN_ANOMALY": 295.1614, "EPHEMERIS_TYPE": 0, "CLASSIFICATION_TYPE": "U", "NORAD_CAT_ID": 33832, "ELEMENT_SET_NO": 999, "REV_AT_EPOCH": 88603, "BSTAR": 0.0014396353, "MEAN_MOTION_DOT": 7.035e-05, "MEAN_MOTION_DDOT": 0}, "tle": {"line1": "1 33832U 93036BZ  25358.96428012  .00007035  00000+0  14396-2 0  9994", "line2": "2 33832  74.0528 186.6476 0024033 215.3590 295.1614 14.60787327886030"}}, "geometry": {"type": "Point", "coordinates": [9.025860396181011, -14.01498328580226]}}, {"type": "Feature", "properties": {"norad_id": 33835, "name": "COSMOS 2251 DEB", "group": "cosmos-2251-debris", "lat": 68.41019852378625, "lon": -150.24231374150395, "alt_km": 643.0478978691062, "timestamp": "2025-12-25T20:42:39.080486+00:00", "meta": {"OBJECT_NAME": "COSMOS 2251 DEB", "OBJECT_ID": "1993-036CC", "EPOCH": "2025-12-25T07:22:40.924704", "MEAN_MOTION": 14.62366474, "ECCENTRICITY": 0.00537363, "INCLINATION": 74.0572, "RA_OF_ASC_NODE": 77.0698, "ARG_OF_PERICENTER": 126.8829, "MEAN_ANOMALY": 294.6319, "EPHEMERIS_TYPE": 0, "CLASSIFICATION_TYPE": "U", "NORAD_CAT_ID": 33835, "ELEMENT_SET_NO": 999, "REV_AT_EPOCH": 88973, "BSTAR": 0.00091101162, "MEAN_MOTION_DOT": 4.674e-05, "MEAN_MOTION_DDOT": 0}, "tle": {"line1": "1 33835U 93036CC  25359.30741811  .00004674  00000+0  91101-3 0  9997", "line2": "2 33835  74.0572  77.0698 0053736 126.8829 294.6319 14.62366474889738"}}, "geometry": {"type": "Point", "coordinates": [-150.24231374150395, 68.41019852378625]}}, {"type": "Feature", "properties": {"norad_id": 33836, "name": "COSMOS 2251 DEB", "group": "cosmos-2251-debris", "lat": -48.36557876108835, "lon": 71.89002761355532, "alt_km": 650.1603430669684, "timestamp": "2025-12-25T20:42:39.080496+00:00", "meta": {"OBJECT_NAME": "COSMOS 2251 DEB", "OBJECT_ID": "1993-036CD", "EPOCH": "2025-12-24T16:13:46.720416", "MEAN_MOTION": 14.79813412, "ECCENTRICITY": 0.00228625, "INCLINATION": 73.9959, "RA_OF_ASC_NODE": 235.3942, "ARG_OF_PERICENTER": 84.0042, "MEAN_ANOMALY": 307.3858, "EPHEMERIS_TYPE": 0, "CLASSIFICATION_TYPE": "U", "NORAD_CAT_ID": 33836, "ELEMENT_SET_NO": 999, "REV_AT_EPOCH": 64265, "BSTAR": 0.0011319562, "MEAN_MOTION_DOT": 8.54e-05, "MEAN_MOTION_DDOT": 0}, "tle": {"line1": "1 33836U 93036CD  25358.67623519  .00008540  00000+0  11320-2 0  9991", "line2": "2 33836  73.9959 235.3942 0022862  84.0042 307.3858 14.79813412642650"}}, "geometry": {"type": "Point", "coordinates": [71.89002761355532, -48.36557876108835]}}, {"type": "Feature", "properties": {"norad_id": 33837, "name": "COSMOS 2251 DEB", "group": "cosmos-2251-debris", "lat": -70.94083787307825, "lon": -25.192916700245544, "alt_km": 708.1278405097119, "timestamp": "2025-12-25T20:42:39.080506+00:00", "meta": {"OBJECT_NAME": "COSMOS 2251 DEB", "OBJECT_ID": "1993-036CE", "EPOCH": "2025-12-25T02:52:14.659104", "MEAN_MOTION": 14.50726372, "ECCENTRICITY": 0.00358788, "INCLINATION": 74.0123, "RA_OF_ASC_NODE": 32.2899, "ARG_OF_PERICENTER": 252.0503, "MEAN_ANOMALY": 107.6745, "EPHEMERIS_TYPE": 0, "CLASSIFICATION_TYPE": "U", "NORAD_CAT_ID": 33837, "ELEMENT_SET_NO": 999, "REV_AT_EPOCH": 88975, "BSTAR": 0.00024794439, "MEAN_MOTION_DOT": 9.54e-06, "MEAN_MOTION_DDOT": 0}, "tle": {"line1": "1 33837U 93036CE  25359.11961411  .00000954  00000+0  24794-3 0  9999", "line2": "2 33837  74.0123  32.2899 0035878 252.0503 107.6745 14.50726372889758"}}, "geometry": {"type": "Point", "coordinates": [-25.192916700245544, -70.94083787307825]}}, {"type": "Feature", "properties": {"norad_id": 33838, "name": "COSMOS 2251 DEB", "group": "cosmos-2251-debris", "lat": 40.71277810338124, "lon": 139.49731166991367, "alt_km": 745.3522894580037, "timestamp": "2025-12-25T20:42:39.080516+00:00", "meta": {"OBJECT_NAME": "COSMOS 2251 DEB", "OBJECT_ID": "1993-036CF", "EPOCH": "2025-12-24T18:32:42.984672", "MEAN_MOTION": 14.48398949, "ECCENTRICITY": 0.00274744, "INCLINATION": 74.0366, "RA_OF_ASC_NODE": 127.2787, "ARG_OF_PERICENTER": 247.5321, "MEAN_ANOMALY": 232.7262, "EPHEMERIS_TYPE": 0, "CLASSIFICATION_TYPE": "U", "NORAD_CAT_ID": 33838, "ELEMENT_SET_NO": 999, "REV_AT_EPOCH": 88743, "BSTAR": 0.00041849362, "MEAN_MOTION_DOT": 1.547e-05, "MEAN_MOTION_DDOT": 0}, "tle": {"line1": "1 33838U 93036CF  25358.77271973  .00001547  00000+0  41849-3 0  9997", "line2": "2 33838  74.0366 127.2787 0027474 247.5321 232.7262 14.48398949887438"}}, "geometry": {"type": "Point", "coordinates": [139.49731166991367, 40.71277810338124]}}, {"type": "Feature", "properties": {"norad_id": 33839, "name": "COSMOS 2251 DEB", "group": "cosmos-2251-debris", "lat": 7.390880283392614, "lon": -176.60814435834988, "alt_km": 666.9549555464819, "timestamp": "2025-12-25T20:42:39.080526+00:00", "meta": {"OBJECT_NAME": "COSMOS 2251 DEB", "OBJECT_ID": "1993-036CG", "EPOCH": "2025-12-23T19:33:34.360128", "MEAN_MOTION": 14.64445826, "ECCENTRICITY": 0.00853576, "INCLINATION": 74.0374, "RA_OF_ASC_NODE": 185.1983, "ARG_OF_PERICENTER": 294.7494, "MEAN_ANOMALY": 79.6279, "EPHEMERIS_TYPE": 0, "CLASSIFICATION_TYPE": "U", "NORAD_CAT_ID": 33839, "ELEMENT_SET_NO": 999, "REV_AT_EPOCH": 89742, "BSTAR": 0.00019226296, "MEAN_MOTION_DOT": 1.039e-05, "MEAN_MOTION_DDOT": 0}, "tle": {"line1": "1 33839U 93036CG  25357.81498102  .00001039  00000+0  19226-3 0  9997", "line2": "2 33839  74.0374 185.1983 0085357 294.7494  79.6279 14.64445826897429"}}, "geometry": {"type": "Point", "coordinates": [-176.60814435834988, 7.390880283392614]}}]}